*******************************************************************************
Ephemeris / WWW_USER Thu Dec  5 18:37:18 2024 Pasadena, USA      / Horizons    
*******************************************************************************
Target body name: 62412 (2000 SY178)              {source: JPL#44}
Center body name: Earth (399)                     {source: DE441}
Center-site name: Mauna Kea
*******************************************************************************
Start time      : A.D. 2018-Oct-22 04:03:00.0000 UT      
Stop  time      : A.D. 2018-Oct-22 16:09:00.0000 UT      
Step-size       : 1 minutes
*******************************************************************************
Target pole/equ : undefined
Target radii    : 5.187 km                                                     
Center geodetic : 204.5278, 19.8260847, 4.21024   {E-lon(deg),Lat(deg),Alt(km)}
Center cylindric: 204.5278, 6006.35451, 2151.0229 {E-lon(deg),Dxy(km),Dz(km)}
Center pole/equ : ITRF93                          {East-longitude positive}
Center radii    : 6378.137, 6378.137, 6356.752 km {Equator_a, b, pole_c}       
Target primary  : Sun
Vis. interferer : MOON (R_eq= 1737.400) km        {source: DE441}
Rel. light bend : Sun                             {source: DE441}
Rel. lght bnd GM: 1.3271E+11 km^3/s^2                                          
Small-body perts: Yes                             {source: SB441-N16}
Atmos refraction: NO (AIRLESS)
RA format       : HMS
Time format     : CAL 
Calendar mode   : Mixed Julian/Gregorian
RTS-only print  : NO       
EOP file        : eop.241205.p250303                                           
EOP coverage    : DATA-BASED 1962-JAN-20 TO 2024-DEC-05. PREDICTS-> 2025-MAR-02
Units conversion: 1 au= 149597870.700 km, c= 299792.458 km/s, 1 day= 86400.0 s 
Table cut-offs 1: Elevation (-90.0deg=NO ),Airmass (>38.000=NO), Daylight (YES)
Table cut-offs 2: Solar elongation (  0.0,180.0=NO ),Local Hour Angle( 0.0=NO )
Table cut-offs 3: RA/DEC angular rate (     0.0=NO )                           
*******************************************************************************
Initial IAU76/J2000 heliocentric ecliptic osculating elements (au, days, deg.):
  EPOCH=  2458127.5 ! 2018-Jan-09.00 (TDB)         Residual RMS= .2787         
   EC= .08141730682229319  QR= 2.89613208739257    TP= 2458420.6685284483      
   OM= 329.1525583823792   W=  163.0619562799197   IN= 4.73619265468861        
  Equivalent ICRF heliocentric cartesian coordinates (au, au/d):
   X= 8.831945932166756E-01  Y= 2.532168596675914E+00  Z= 1.360803999508301E+00
  VX=-9.867256226021401E-03 VY= 2.254941400948641E-03 VZ= 7.028227572403328E-04
Asteroid physical parameters (km, seconds, rotational period in hours):        
   GM= n.a.                RAD= 5.187              ROTPER= 3.33                
   H= 13.88                G= .150                 B-V= n.a.                   
                           ALBEDO= .065            STYP= n.a.                  
*******************************************************************************
 Date__(UT)__HR:MN     R.A._________(ICRF)_________DEC
******************************************************
$$SOE
 2018-Oct-22 10:12  m  10 03 35.016862 +13 19 16.88624
 2018-Oct-22 10:13  m  10 03 35.068376 +13 19 16.58622
 2018-Oct-22 10:14  m  10 03 35.119887 +13 19 16.28621
 2018-Oct-22 10:15  m  10 03 35.171395 +13 19 15.98620
 2018-Oct-22 10:16  m  10 03 35.222900 +13 19 15.68619
 2018-Oct-22 10:17  m  10 03 35.274401 +13 19 15.38620
 2018-Oct-22 10:18  m  10 03 35.325900 +13 19 15.08621
 2018-Oct-22 10:19  m  10 03 35.377396 +13 19 14.78622
 2018-Oct-22 10:20  m  10 03 35.428888 +13 19 14.48624
 2018-Oct-22 10:21  m  10 03 35.480378 +13 19 14.18627
 2018-Oct-22 10:22  m  10 03 35.531864 +13 19 13.88631
 2018-Oct-22 10:23  m  10 03 35.583347 +13 19 13.58635
 2018-Oct-22 10:24  m  10 03 35.634827 +13 19 13.28639
 2018-Oct-22 10:25  m  10 03 35.686304 +13 19 12.98645
 2018-Oct-22 10:26  m  10 03 35.737777 +13 19 12.68650
 2018-Oct-22 10:27  m  10 03 35.789248 +13 19 12.38657
 2018-Oct-22 10:28  m  10 03 35.840715 +13 19 12.08664
 2018-Oct-22 10:29  m  10 03 35.892179 +13 19 11.78671
 2018-Oct-22 10:30  m  10 03 35.943640 +13 19 11.48680
 2018-Oct-22 10:31  m  10 03 35.995098 +13 19 11.18688
 2018-Oct-22 10:32  m  10 03 36.046553 +13 19 10.88698
 2018-Oct-22 10:33  m  10 03 36.098004 +13 19 10.58708
 2018-Oct-22 10:34  m  10 03 36.149452 +13 19 10.28718
 2018-Oct-22 10:35  m  10 03 36.200897 +13 19 09.98729
 2018-Oct-22 10:36  m  10 03 36.252339 +13 19 09.68741
 2018-Oct-22 10:37  m  10 03 36.303778 +13 19 09.38753
 2018-Oct-22 10:38  m  10 03 36.355213 +13 19 09.08766
 2018-Oct-22 10:39  m  10 03 36.406645 +13 19 08.78779
 2018-Oct-22 10:40  m  10 03 36.458074 +13 19 08.48793
 2018-Oct-22 10:41  m  10 03 36.509499 +13 19 08.18807
 2018-Oct-22 10:42  m  10 03 36.560921 +13 19 07.88822
 2018-Oct-22 10:43  m  10 03 36.612340 +13 19 07.58837
 2018-Oct-22 10:44  m  10 03 36.663756 +13 19 07.28853
 2018-Oct-22 10:45  m  10 03 36.715169 +13 19 06.98870
 2018-Oct-22 10:46  m  10 03 36.766578 +13 19 06.68886
 2018-Oct-22 10:47  m  10 03 36.817984 +13 19 06.38904
 2018-Oct-22 10:48  m  10 03 36.869386 +13 19 06.08922
 2018-Oct-22 10:49  m  10 03 36.920785 +13 19 05.78940
 2018-Oct-22 10:50  m  10 03 36.972181 +13 19 05.48959
 2018-Oct-22 10:51  m  10 03 37.023574 +13 19 05.18979
 2018-Oct-22 10:52  m  10 03 37.074963 +13 19 04.88998
 2018-Oct-22 10:53  m  10 03 37.126349 +13 19 04.59019
 2018-Oct-22 10:54  m  10 03 37.177732 +13 19 04.29040
 2018-Oct-22 10:55  m  10 03 37.229111 +13 19 03.99061
 2018-Oct-22 10:56  m  10 03 37.280487 +13 19 03.69083
 2018-Oct-22 10:57  m  10 03 37.331860 +13 19 03.39105
 2018-Oct-22 10:58  m  10 03 37.383229 +13 19 03.09128
 2018-Oct-22 10:59  m  10 03 37.434595 +13 19 02.79151
 2018-Oct-22 11:00  m  10 03 37.485957 +13 19 02.49174
 2018-Oct-22 11:01  m  10 03 37.537316 +13 19 02.19198
 2018-Oct-22 11:02  m  10 03 37.588672 +13 19 01.89223
 2018-Oct-22 11:03  m  10 03 37.640025 +13 19 01.59248
 2018-Oct-22 11:04  m  10 03 37.691374 +13 19 01.29273
 2018-Oct-22 11:05  m  10 03 37.742719 +13 19 00.99299
 2018-Oct-22 11:06  m  10 03 37.794061 +13 19 00.69325
 2018-Oct-22 11:07  m  10 03 37.845400 +13 19 00.39352
 2018-Oct-22 11:08  m  10 03 37.896736 +13 19 00.09379
 2018-Oct-22 11:09  m  10 03 37.948068 +13 18 59.79406
 2018-Oct-22 11:10  m  10 03 37.999396 +13 18 59.49434
 2018-Oct-22 11:11  m  10 03 38.050721 +13 18 59.19462
 2018-Oct-22 11:12  m  10 03 38.102043 +13 18 58.89491
 2018-Oct-22 11:13  m  10 03 38.153361 +13 18 58.59520
 2018-Oct-22 11:14  m  10 03 38.204676 +13 18 58.29549
 2018-Oct-22 11:15  m  10 03 38.255988 +13 18 57.99579
 2018-Oct-22 11:16  m  10 03 38.307296 +13 18 57.69609
 2018-Oct-22 11:17  m  10 03 38.358600 +13 18 57.39640
 2018-Oct-22 11:18  m  10 03 38.409901 +13 18 57.09671
 2018-Oct-22 11:19  m  10 03 38.461199 +13 18 56.79702
 2018-Oct-22 11:20  m  10 03 38.512493 +13 18 56.49734
 2018-Oct-22 11:21  m  10 03 38.563784 +13 18 56.19766
 2018-Oct-22 11:22  m  10 03 38.615071 +13 18 55.89798
 2018-Oct-22 11:23  m  10 03 38.666355 +13 18 55.59830
 2018-Oct-22 11:24  m  10 03 38.717635 +13 18 55.29863
 2018-Oct-22 11:25  m  10 03 38.768912 +13 18 54.99897
 2018-Oct-22 11:26  m  10 03 38.820185 +13 18 54.69930
 2018-Oct-22 11:27  m  10 03 38.871455 +13 18 54.39964
 2018-Oct-22 11:28  m  10 03 38.922721 +13 18 54.09999
 2018-Oct-22 11:29  m  10 03 38.973984 +13 18 53.80033
 2018-Oct-22 11:30  m  10 03 39.025244 +13 18 53.50068
 2018-Oct-22 11:31  m  10 03 39.076499 +13 18 53.20103
 2018-Oct-22 11:32  m  10 03 39.127752 +13 18 52.90139
 2018-Oct-22 11:33  m  10 03 39.179001 +13 18 52.60175
 2018-Oct-22 11:34  m  10 03 39.230246 +13 18 52.30211
 2018-Oct-22 11:35  m  10 03 39.281488 +13 18 52.00247
 2018-Oct-22 11:36  m  10 03 39.332726 +13 18 51.70284
 2018-Oct-22 11:37  m  10 03 39.383961 +13 18 51.40321
 2018-Oct-22 11:38  m  10 03 39.435192 +13 18 51.10358
 2018-Oct-22 11:39  m  10 03 39.486420 +13 18 50.80395
 2018-Oct-22 11:40  m  10 03 39.537644 +13 18 50.50433
 2018-Oct-22 11:41  m  10 03 39.588865 +13 18 50.20471
 2018-Oct-22 11:42  m  10 03 39.640082 +13 18 49.90509
 2018-Oct-22 11:43  m  10 03 39.691295 +13 18 49.60548
 2018-Oct-22 11:44  m  10 03 39.742505 +13 18 49.30587
 2018-Oct-22 11:45  m  10 03 39.793712 +13 18 49.00626
 2018-Oct-22 11:46  m  10 03 39.844915 +13 18 48.70665
 2018-Oct-22 11:47  m  10 03 39.896114 +13 18 48.40704
 2018-Oct-22 11:48  m  10 03 39.947310 +13 18 48.10744
 2018-Oct-22 11:49  m  10 03 39.998503 +13 18 47.80784
 2018-Oct-22 11:50  m  10 03 40.049691 +13 18 47.50824
 2018-Oct-22 11:51  m  10 03 40.100877 +13 18 47.20864
 2018-Oct-22 11:52  m  10 03 40.152058 +13 18 46.90905
 2018-Oct-22 11:53  r  10 03 40.203236 +13 18 46.60945
 2018-Oct-22 11:54  m  10 03 40.254411 +13 18 46.30986
 2018-Oct-22 11:55  m  10 03 40.305582 +13 18 46.01027
 2018-Oct-22 11:56  m  10 03 40.356749 +13 18 45.71069
 2018-Oct-22 11:57  m  10 03 40.407913 +13 18 45.41110
 2018-Oct-22 11:58  m  10 03 40.459073 +13 18 45.11152
 2018-Oct-22 11:59  m  10 03 40.510230 +13 18 44.81194
 2018-Oct-22 12:00  m  10 03 40.561383 +13 18 44.51236
 2018-Oct-22 12:01  m  10 03 40.612533 +13 18 44.21278
 2018-Oct-22 12:02  m  10 03 40.663679 +13 18 43.91320
 2018-Oct-22 12:03  m  10 03 40.714821 +13 18 43.61362
 2018-Oct-22 12:04  m  10 03 40.765960 +13 18 43.31405
 2018-Oct-22 12:05  m  10 03 40.817095 +13 18 43.01448
 2018-Oct-22 12:06  m  10 03 40.868227 +13 18 42.71491
 2018-Oct-22 12:07  m  10 03 40.919355 +13 18 42.41534
 2018-Oct-22 12:08  m  10 03 40.970480 +13 18 42.11577
 2018-Oct-22 12:09  m  10 03 41.021601 +13 18 41.81620
 2018-Oct-22 12:10  m  10 03 41.072718 +13 18 41.51663
 2018-Oct-22 12:11  m  10 03 41.123832 +13 18 41.21707
 2018-Oct-22 12:12  m  10 03 41.174942 +13 18 40.91750
 2018-Oct-22 12:13  m  10 03 41.226048 +13 18 40.61794
 2018-Oct-22 12:14  m  10 03 41.277151 +13 18 40.31838
